{
    "links": {
        "self": "http://www.neowsapp.com/rest/v1/neo/3734187?api_key=iIulBulltgU6a56xZRHN4H3l9WmuAYTsLGpBGhQ2"
    },
    "id": "3734187",
    "neo_reference_id": "3734187",
    "name": "(2015 VJ66)",
    "designation": "2015 VJ66",
    "nasa_jpl_url": "http://ssd.jpl.nasa.gov/sbdb.cgi?sstr=3734187",
    "absolute_magnitude_h": 23.3,
    "estimated_diameter": {
        "kilometers": {
            "estimated_diameter_min": 0.058150704,
            "estimated_diameter_max": 0.130028927
        },
        "meters": {
            "estimated_diameter_min": 58.1507039646,
            "estimated_diameter_max": 130.0289270043
        },
        "miles": {
            "estimated_diameter_min": 0.0361331611,
            "estimated_diameter_max": 0.0807962044
        },
        "feet": {
            "estimated_diameter_min": 190.7831555951,
            "estimated_diameter_max": 426.6041048727
        }
    },
    "is_potentially_hazardous_asteroid": false,
    "close_approach_data": [
        {
            "close_approach_date": "2015-11-05",
            "close_approach_date_full": "2015-Nov-05 11:05",
            "epoch_date_close_approach": 1446721500000,
            "relative_velocity": {
                "kilometers_per_second": "18.3669538449",
                "kilometers_per_hour": "66121.033841635",
                "miles_per_hour": "41085.0390556537"
            },
            "miss_distance": {
                "astronomical": "0.1255618261",
                "lunar": "48.8435503529",
                "kilometers": "18783781.737870407",
                "miles": "11671700.7479573366"
            },
            "orbiting_body": "Earth"
        }
    ],
    "orbital_data": {
        "orbit_id": "5",
        "orbit_determination_date": "2017-04-06 08:30:45",
        "first_observation_date": "2015-11-10",
        "last_observation_date": "2015-11-19",
        "data_arc_in_days": 9,
        "observations_used": 21,
        "orbit_uncertainty": "9",
        "minimum_orbit_intersection": ".121392",
        "jupiter_tisserand_invariant": "3.565",
        "epoch_osculation": "2457338.5",
        "eccentricity": ".4370417705922526",
        "semi_major_axis": "1.976498600913107",
        "inclination": "32.71778156080084",
        "ascending_node_longitude": "43.84326490101753",
        "orbital_period": "1014.946601650799",
        "perihelion_distance": "1.112686152796933",
        "perihelion_argument": "359.4163966305049",
        "aphelion_distance": "2.840311049029282",
        "perihelion_time": "2457330.885990491124",
        "mean_anomaly": "2.700677472821805",
        "mean_motion": ".3546984633619779",
        "equinox": "J2000",
        "orbit_class": {
            "orbit_class_type": "AMO",
            "orbit_class_description": "Near-Earth asteroid orbits similar to that of 1221 Amor",
            "orbit_class_range": "1.017 AU < q (perihelion) < 1.3 AU"
        }
    },
    "is_sentry_object": false
}